[
    {
        "Altitude(m)": 554015.323412334,
        "Argument of Periapsis(deg)": 0.006622991110713501,
        "Eccentricity": 0.0,
        "Inclination(deg)": 53.0,
        "Latitude(deg)": 22.287987026981245,
        "Longitude(deg)": -167.88360609959616,
        "Mean Anomaly(deg)": 28.27339286757756,
        "RAAN(deg)": 274.990143368528,
        "Satellite Name": "Starlink Shell 1 1211",
        "Satellite Number": 1211,
        "Semi-Major Axis(m)": 6931778.249405717,
        "Time(s)": 190
    },
    {
        "Altitude(m)": 554064.9848390222,
        "Argument of Periapsis(deg)": 0.0069715695902247375,
        "Eccentricity": 0.0,
        "Inclination(deg)": 53.0,
        "Latitude(deg)": 22.766459479709884,
        "Longitude(deg)": -167.48372417197578,
        "Mean Anomaly(deg)": 28.900224071134303,
        "RAAN(deg)": 274.9896245984506,
        "Satellite Name": "Starlink Shell 1 1211",
        "Satellite Number": 1211,
        "Semi-Major Axis(m)": 6931778.249405717,
        "Time(s)": 200
    },
    {
        "Altitude(m)": 554116.4835071212,
        "Argument of Periapsis(deg)": 0.007320148069735974,
        "Eccentricity": 0.0,
        "Inclination(deg)": 53.0,
        "Latitude(deg)": 23.243677324094,
        "Longitude(deg)": -167.08076229193284,
        "Mean Anomaly(deg)": 29.52705527469105,
        "RAAN(deg)": 274.98910582837306,
        "Satellite Name": "Starlink Shell 1 1211",
        "Satellite Number": 1211,
        "Semi-Major Axis(m)": 6931778.249405717,
        "Time(s)": 210
    },
    {
        "Altitude(m)": 554169.7739079896,
        "Argument of Periapsis(deg)": 0.007668726549247212,
        "Eccentricity": 0.0,
        "Inclination(deg)": 53.0,
        "Latitude(deg)": 23.719602618466798,
        "Longitude(deg)": -166.67463472008959,
        "Mean Anomaly(deg)": 30.153886478247696,
        "RAAN(deg)": 274.98858705829554,
        "Satellite Name": "Starlink Shell 1 1211",
        "Satellite Number": 1211,
        "Semi-Major Axis(m)": 6931778.249405717,
        "Time(s)": 220
    },
    {
        "Altitude(m)": 554224.8098020699,
        "Argument of Periapsis(deg)": 0.00801730502875845,
        "Eccentricity": 0.0,
        "Inclination(deg)": 53.0,
        "Latitude(deg)": 24.194196665337863,
        "Longitude(deg)": -166.26525450994487,
        "Mean Anomaly(deg)": 30.780717681804443,
        "RAAN(deg)": 274.98806828821813,
        "Satellite Name": "Starlink Shell 1 1211",
        "Satellite Number": 1211,
        "Semi-Major Axis(m)": 6931778.249405717,
        "Time(s)": 230
    },
    {
        "Altitude(m)": 554281.544244074,
        "Argument of Periapsis(deg)": 0.008365883508269684,
        "Eccentricity": 0.0,
        "Inclination(deg)": 53.0,
        "Latitude(deg)": 24.66741998642918,
        "Longitude(deg)": -165.85253298461726,
        "Mean Anomaly(deg)": 31.40754888536114,
        "RAAN(deg)": 274.98754951814067,
        "Satellite Name": "Starlink Shell 1 1211",
        "Satellite Number": 1211,
        "Semi-Major Axis(m)": 6931778.249405717,
        "Time(s)": 240
    },
    {
        "Altitude(m)": 554339.9296084789,
        "Argument of Periapsis(deg)": 0.008714461987780921,
        "Eccentricity": 0.0,
        "Inclination(deg)": 53.0,
        "Latitude(deg)": 25.139232297185313,
        "Longitude(deg)": -165.43638072768687,
        "Mean Anomaly(deg)": 32.034380088917885,
        "RAAN(deg)": 274.98703074806315,
        "Satellite Name": "Starlink Shell 1 1211",
        "Satellite Number": 1211,
        "Semi-Major Axis(m)": 6931778.249405717,
        "Time(s)": 250
    },
    {
        "Altitude(m)": 554399.9176153069,
        "Argument of Periapsis(deg)": 0.009063040467292158,
        "Eccentricity": 0.0,
        "Inclination(deg)": 53.0,
        "Latitude(deg)": 25.60959248074824,
        "Longitude(deg)": -165.0167070625278,
        "Mean Anomaly(deg)": 32.66121129247463,
        "RAAN(deg)": 274.98651197798574,
        "Satellite Name": "Starlink Shell 1 1211",
        "Satellite Number": 1211,
        "Semi-Major Axis(m)": 6931778.249405717,
        "Time(s)": 260
    },
    {
        "Altitude(m)": 554461.4593562306,
        "Argument of Periapsis(deg)": 0.009411618946803396,
        "Eccentricity": 0.0,
        "Inclination(deg)": 53.0,
        "Latitude(deg)": 26.078458561401817,
        "Longitude(deg)": -164.59341953314447,
        "Mean Anomaly(deg)": 33.288042496031274,
        "RAAN(deg)": 274.9859932079082,
        "Satellite Name": "Starlink Shell 1 1211",
        "Satellite Number": 1211,
        "Semi-Major Axis(m)": 6931778.249405717,
        "Time(s)": 270
    },
    {
        "Altitude(m)": 554524.5053209079,
        "Argument of Periapsis(deg)": 0.009760197426314633,
        "Eccentricity": 0.0,
        "Inclination(deg)": 53.0,
        "Latitude(deg)": 26.545787677488867,
        "Longitude(deg)": -164.1664248995426,
        "Mean Anomaly(deg)": 33.91487369958802,
        "RAAN(deg)": 274.98547443783076,
        "Satellite Name": "Starlink Shell 1 1211",
        "Satellite Number": 1211,
        "Semi-Major Axis(m)": 6931778.249405717,
        "Time(s)": 280
    },
    {
        "Altitude(m)": 554589.0054236118,
        "Argument of Periapsis(deg)": 0.01010877590582587,
        "Eccentricity": 0.0,
        "Inclination(deg)": 53.0,
        "Latitude(deg)": 27.01153605379905,
        "Longitude(deg)": -163.73562862205372,
        "Mean Anomaly(deg)": 34.54170490314472,
        "RAAN(deg)": 274.9849556677533,
        "Satellite Name": "Starlink Shell 1 1211",
        "Satellite Number": 1211,
        "Semi-Major Axis(m)": 6931778.249405717,
        "Time(s)": 290
    },
    {
        "Altitude(m)": 554654.9090300904,
        "Argument of Periapsis(deg)": 0.010457354385337106,
        "Eccentricity": 0.0,
        "Inclination(deg)": 53.0,
        "Latitude(deg)": 27.47565897343721,
        "Longitude(deg)": -163.30093434766562,
        "Mean Anomaly(deg)": 35.16853610670147,
        "RAAN(deg)": 274.9844368976758,
        "Satellite Name": "Starlink Shell 1 1211",
        "Satellite Number": 1211,
        "Semi-Major Axis(m)": 6931778.249405717,
        "Time(s)": 300
    },
    {
        "Altitude(m)": 554722.1649846458,
        "Argument of Periapsis(deg)": 0.010805932864848343,
        "Eccentricity": 0.0,
        "Inclination(deg)": 53.0,
        "Latitude(deg)": 27.938110749181494,
        "Longitude(deg)": -162.86224491142266,
        "Mean Anomaly(deg)": 35.795367310258214,
        "RAAN(deg)": 274.9839181275983,
        "Satellite Name": "Starlink Shell 1 1211",
        "Satellite Number": 1211,
        "Semi-Major Axis(m)": 6931778.249405717,
        "Time(s)": 310
    },
    {
        "Altitude(m)": 554790.7216374698,
        "Argument of Periapsis(deg)": 0.01115451134435958,
        "Eccentricity": 0.0,
        "Inclination(deg)": 53.0,
        "Latitude(deg)": 28.398844694338134,
        "Longitude(deg)": -162.41946182735526,
        "Mean Anomaly(deg)": 36.422198513814855,
        "RAAN(deg)": 274.9833993575209,
        "Satellite Name": "Starlink Shell 1 1211",
        "Satellite Number": 1211,
        "Semi-Major Axis(m)": 6931778.249405717,
        "Time(s)": 320
    },
    {
        "Altitude(m)": 554860.526872143,
        "Argument of Periapsis(deg)": 0.011503089823870818,
        "Eccentricity": 0.0,
        "Inclination(deg)": 53.0,
        "Latitude(deg)": 28.857813093108216,
        "Longitude(deg)": -161.97248478203142,
        "Mean Anomaly(deg)": 37.0490297173716,
        "RAAN(deg)": 274.9828805874434,
        "Satellite Name": "Starlink Shell 1 1211",
        "Satellite Number": 1211,
        "Semi-Major Axis(m)": 6931778.249405717,
        "Time(s)": 330
    },
    {
        "Altitude(m)": 554931.5281333348,
        "Argument of Periapsis(deg)": 0.011851668303382053,
        "Eccentricity": 0.0,
        "Inclination(deg)": 53.0,
        "Latitude(deg)": 29.314967170486263,
        "Longitude(deg)": -161.52121264383536,
        "Mean Anomaly(deg)": 37.6758609209283,
        "RAAN(deg)": 274.98236181736587,
        "Satellite Name": "Starlink Shell 1 1211",
        "Satellite Number": 1211,
        "Semi-Major Axis(m)": 6931778.249405717,
        "Time(s)": 340
    },
    {
        "Altitude(m)": 555003.6724546982,
        "Argument of Periapsis(deg)": 0.012200246782893292,
        "Eccentricity": 0.0,
        "Inclination(deg)": 53.0,
        "Latitude(deg)": 29.770257061705475,
        "Longitude(deg)": -161.06554296247901,
        "Mean Anomaly(deg)": 38.30269212448504,
        "RAAN(deg)": 274.98184304728846,
        "Satellite Name": "Starlink Shell 1 1211",
        "Satellite Number": 1211,
        "Semi-Major Axis(m)": 6931778.249405717,
        "Time(s)": 350
    },
    {
        "Altitude(m)": 555076.9064868914,
        "Argument of Periapsis(deg)": 0.012548825262404526,
        "Eccentricity": 0.0,
        "Inclination(deg)": 53.0,
        "Latitude(deg)": 30.22363178125637,
        "Longitude(deg)": -160.60537147188379,
        "Mean Anomaly(deg)": 38.92952332804174,
        "RAAN(deg)": 274.981324277211,
        "Satellite Name": "Starlink Shell 1 1211",
        "Satellite Number": 1211,
        "Semi-Major Axis(m)": 6931778.249405717,
        "Time(s)": 360
    },
    {
        "Altitude(m)": 555151.1765257677,
        "Argument of Periapsis(deg)": 0.012897403741915765,
        "Eccentricity": 0.0,
        "Inclination(deg)": 53.0,
        "Latitude(deg)": 30.67503919150959,
        "Longitude(deg)": -160.1405931095874,
        "Mean Anomaly(deg)": 39.55635453159844,
        "RAAN(deg)": 274.9808055071335,
        "Satellite Name": "Starlink Shell 1 1211",
        "Satellite Number": 1211,
        "Semi-Major Axis(m)": 6931778.249405717,
        "Time(s)": 370
    }
]